105P/SingerBrewster,e,9.1679,192.3984,46.3439,3.472208,0.1523335,0.40900683,337.7910,08/30.0/2024,2000,g 11.5,6.0
# From MPEC 2024-Q42
106P/Schuster,e,19.5394,48.8632,353.7820,3.767516,0.1347787,0.59381525,149.1836,08/30.0/2024,2000,g 14.0,4.8
# From MPEC 2015-M77
107P/Wilson-Harrington,e,2.7986,266.7377,95.5130,2.625527,0.2316750,0.63125163,170.6263,08/30.0/2024,2000,g  9.0,4.0
# From MPEC 2022-P82
108P/Ciffreo,e,11.4356,50.2988,354.5146,3.742999,0.1361052,0.55597551,147.6118,08/30.0/2024,2000,g  8.0,12.0
# From  105, 420
109P/Swift-Tuttle,e,113.3277,139.5461,153.2414,26.21191,0.0073444,0.96267072,85.0173,08/30.0/2024,2000,g  4.0,6.0
# From MPEC 2023-KD6
110P/Hartley,e,11.7092,287.4860,167.5199,3.603839,0.1440642,0.31910769,150.6941,08/30.0/2024,2000,g  1.0,12.0
# From MPC 75718
111P/Helin-Roman-Crockett,e,4.2261,89.8110,1.2880,4.152493,0.1164771,0.10717124,136.0969,08/30.0/2024,2000,g  5.0,8.0
# From MPEC 2021-S45
112P/Urata-Niijima,e,24.2071,31.8287,21.5172,3.523224,0.1490369,0.59087507,247.8215,08/30.0/2024,2000,g 14.0,6.0
# From MPEC 2024-JU4
113P/Spitaler,e,5.2875,306.6431,115.6736,3.694954,0.1387684,0.41989588,113.8210,08/30.0/2024,2000,g 13.5,4.0
# From MPEC 2023-A50
114P/Wiseman-Skiff,e,18.3030,271.0257,172.7791,3.541109,0.1479092,0.55604489,249.6712,08/30.0/2024,2000,g 11.5,6.0
# From MPEC 2023-J29
115P/Maury,e,11.6771,176.0124,120.9446,4.271939,0.1116263,0.51752344,166.8082,08/30.0/2024,2000,g 10.5,6.0
# From MPEC 2024-JU4
116P/Wild,e,3.6038,20.9662,173.1869,3.487088,0.1513595,0.37038478,117.3620,08/30.0/2024,2000,g  2.5,10.0
# From MPEC 2024-Q20
117P/Helin-Roman-Alu,e,8.7030,58.8202,223.9876,4.102229,0.1186245,0.25548612,92.5392,08/30.0/2024,2000,g  2.5,8.0
# From MPEC 2024-MB8
118P/Shoemaker-Levy,e,10.0903,142.0740,314.9058,3.348535,0.1608503,0.45377130,103.6617,08/30.0/2024,2000,g 12.0,4.0
# From MPEC 2024-N80
119P/Parker-Hartley,e,7.3923,104.5513,322.2133,3.808245,0.1326224,0.38834067,99.2847,08/30.0/2024,2000,g  3.5,8.0
# From MPEC 2022-CN4
120P/Mueller,e,8.4849,358.7192,36.7423,3.968649,0.1246637,0.37455341,150.8666,08/30.0/2024,2000,g 12.0,4.0
# From MPEC 2024-JU4
121P/Shoemaker-Holt,e,20.1623,94.1088,11.8142,4.586910,0.1003284,0.18660533,42.8648,08/30.0/2024,2000,g  6.5,8.0
# From MPC 75718
122P/de Vico,e,86.0051,79.7377,12.9955,17.62992,0.0133146,0.96251227,140.7235,08/30.0/2024,2000,g  7.5,5.2
# From MPEC 2021-F20
123P/West-Hartley,e,15.2806,45.9003,103.9989,3.882114,0.1288551,0.44436222,262.9126,08/30.0/2024,2000,g 12.2,4.0
# From MPEC 2023-T65
124P/Mrkos,e,31.4264,0.0397,185.1525,3.374618,0.1589890,0.48655780,254.6320,08/30.0/2024,2000,g 13.5,2.8
# From MPEC 2024-Q42
125P/Spacewatch,e,9.9852,153.1485,87.1328,3.128755,0.1780929,0.51206046,31.2945,08/30.0/2024,2000,g 13.0,6.0
# From MPEC 2024-JU4
126P/IRAS,e,45.8712,357.8577,356.5739,5.631249,0.0737559,0.69627441,31.1079,08/30.0/2024,2000,g  6.0,8.0
# From MPEC 2024-AF0
127P/Holt-Olmstead,e,14.2993,13.6119,6.3260,3.453365,0.1535820,0.35912151,115.2863,08/30.0/2024,2000,g 11.0,6.0
# From MPC 89014
128P/Shoemaker-Holt,e,4.3704,214.3342,210.4063,4.484368,0.1037892,0.32242762,288.8564,08/30.0/2024,2000,g  8.5,4.0
# From MPEC 2024-L77
129P/Shoemaker-Levy,e,3.4420,184.8592,307.6487,4.292566,0.1108227,0.08574371,70.6251,08/30.0/2024,2000,g 11.0,4.0
# From MPEC 2024-Q42
130P/McNaught-Hughes,e,6.0636,70.1783,246.1381,3.381373,0.1585128,0.46085803,21.7314,08/30.0/2024,2000,g 10.0,6.0
# From MPC102101
131P/Mueller,e,7.3604,214.1749,179.1536,3.676311,0.1398253,0.34490263,285.2735,08/30.0/2024,2000,g 11.0,4.0
# From MPEC 2024-BE0
132P/Helin-Roman-Alu,e,5.3802,173.9912,216.4760,3.891207,0.1284037,0.56441694,131.0736,08/30.0/2024,2000,g 11.0,6.0
# From MPC 94676
133P/Elst-Pizarro,e,1.3898,160.1002,131.9088,3.163879,0.1751355,0.15587641,19.5649,08/30.0/2024,2000,g 15.4,2.0
# From MPC 89012
134P/Kowal-Vavrova,e,4.3343,202.0064,18.7280,6.269219,0.0627891,0.58525391,236.9614,08/30.0/2024,2000,g 11.5,4.0
# From MPEC 2024-C04
135P/Shoemaker-Levy,e,6.0639,213.0192,22.4089,3.800954,0.1330041,0.29393554,116.5054,08/30.0/2024,2000,g  7.0,8.0
# From MPEC 2024-Q20
136P/Mueller,e,9.4273,137.4217,225.2663,4.186700,0.1150526,0.29327671,345.4757,08/30.0/2024,2000,g 11.0,4.0
# From MPEC 2023-J29
137P/Shoemaker-Levy,e,4.8606,232.9239,141.2254,4.522780,0.1024698,0.57338013,213.6045,08/30.0/2024,2000,g 11.0,4.0
# From MPEC 2016-U66
138P/Shoemaker-Levy,e,10.0976,309.2794,95.6548,3.618327,0.1431998,0.53162953,278.2015,08/30.0/2024,2000,g 15.0,6.0
# From MPEC 2020-HN5
139P/Vaisala-Oterma,e,2.3375,242.1831,165.8939,4.515211,0.1027276,0.24837682,251.4946,08/30.0/2024,2000,g  9.5,4.0
# From MPEC 2015-E14
140P/Bowell-Skiff,e,3.7428,343.3715,172.2379,6.408537,0.0607527,0.69580831,202.4004,08/30.0/2024,2000,g 11.5,6.0
# From MPEC 2024-Q42
141P/Machholz,e,13.9633,241.7765,153.6412,3.057344,0.1843689,0.73601694,249.2190,08/30.0/2024,2000,g 12.0,12.0
# From MPEC 2015-KD9
141P-A/Machholz,e,13.9421,153.5321,241.8985,3.057542,0.1843510,0.73603305,249.1620,08/30.0/2024,2000,g 12.0,12.0
# From MPC 24216
141P-B/Machholz,e,13.9860,153.6078,241.7877,3.055924,0.1844974,0.73579177,250.5461,08/30.0/2024,2000,g  9.0,4.0
# From MPC 37026
141P-D/Machholz,e,13.8341,153.2588,242.1464,3.066019,0.1835870,0.73698502,244.9882,08/30.0/2024,2000,g  9.0,4.0
# From MPEC 2015-R12
141P-E/Machholz,e,12.8152,246.1856,149.2667,3.012914,0.1884620,0.75023267,359.9529,09/19.0/1994,2000,g  9.0,4.0
# From MPEC 2015-R12
141P-F/Machholz,e,12.7898,246.1881,149.2374,3.010224,0.1887147,0.75000946,359.9630,09/19.0/1994,2000,g  9.0,4.0
# From MPEC 2015-R12
141P-G/Machholz,e,12.8259,246.3146,149.0784,3.005818,0.1891298,0.74964304,359.9802,09/19.0/1994,2000,g  9.0,4.0
# From MPC 95735
141P-H/Machholz,e,12.8431,246.0900,149.4500,3.008012,0.1889230,0.74682218,359.9270,08/24.0/2015,2000,g 18.5,4.0
# From MPEC 2022-SU8
141P-I/Machholz,e,13.9420,153.4865,241.9086,3.048018,0.1852157,0.73525919,250.4433,08/30.0/2024,2000,g 17.5,4.0
# From MPEC 2024-C04
142P/Ge-Wang,e,12.2481,175.9500,174.0770,5.002897,0.0880789,0.49637202,106.2118,08/30.0/2024,2000,g  8.5,6.0
# From MPEC 2023-XP6
143P/Kowal-Mrkos,e,5.7567,243.3190,314.3642,4.464054,0.1044985,0.42551073,271.1487,08/30.0/2024,2000,g 13.5,2.0
# From MPEC 2024-M41
144P/Kushida,e,3.9319,242.9245,216.3317,3.831878,0.1313973,0.63491551,28.5418,08/30.0/2024,2000,g  8.5,8.0
# From MPC108598
145P/Shoemaker-Levy,e,11.2769,26.8072,10.3386,4.132360,0.1173294,0.54259512,299.0097,08/30.0/2024,2000,g 13.5,4.0
# From MPEC 2024-Q42
146P/Shoemaker-LINEAR,e,23.1230,53.3750,317.0786,4.026887,0.1219691,0.64747858,2.9953,08/30.0/2024,2000,g 15.0,4.0
# From MPC 75720
147P/Kushida-Muramatsu,e,2.2914,92.1164,348.1011,4.009442,0.1227660,0.21218503,32.7758,08/30.0/2024,2000,g 14.0,4.0
# From MPEC 2024-JU4
148P/Anderson-LINEAR,e,3.6588,89.1957,8.0610,3.619918,0.1431054,0.55031304,115.6311,08/30.0/2024,2000,g 16.0,2.0
# From MPEC 2023-J29
149P/Mueller,e,34.2337,143.8138,30.3463,4.126111,0.1175960,0.32433348,261.3118,08/30.0/2024,2000,g  8.0,8.0
# From MPEC 2024-NE4
150P/LONEOS,e,18.5476,272.0569,246.1189,3.870940,0.1294135,0.54905239,22.0685,08/30.0/2024,2000,g 13.5,4.0
# From MPEC 2022-K19
151P/Helin,e,4.7268,143.1496,216.1476,5.764720,0.0712093,0.57304911,230.8955,08/30.0/2024,2000,g 10.0,6.0
# From MPEC 2024-PC5
152P/Helin-Lawrence,e,9.8788,91.7839,164.4259,4.484501,0.1037846,0.30763723,99.4765,08/30.0/2024,2000,g 11.5,4.0
# From MPC 46101
153P/Ikeya-Zhang,e,28.4447,93.7504,34.3070,50.38253,0.0027560,0.99004550,0.0000,03/07.7792/2002,2000,g  9.0,4.0
# From MPEC 2024-Q42
154P/Brewington,e,17.6338,343.0108,47.9436,4.798658,0.0937614,0.67638848,7.2891,08/30.0/2024,2000,g  2.5,12.0
# From MPEC 2022-YN2
155P/Shoemaker,e,6.4091,97.1577,14.5202,6.571114,0.0585121,0.72744970,102.3088,08/30.0/2024,2000,g 10.0,4.8
# From MPEC 2023-J29
156P/Russell-LINEAR,e,17.2672,35.3410,0.5134,3.462555,0.1529710,0.61507034,211.1312,08/30.0/2024,2000,g 15.5,2.0
# From MPEC 2024-D33
157P/Tritton,e,12.4220,287.5095,155.1420,3.547322,0.1475208,0.55684803,106.2138,08/30.0/2024,2000,g 10.0,4.0
# From MPEC 2022-VC5
157P-B/Tritton,e,12.4246,153.9049,287.1642,3.102490,0.1803593,0.49992089,130.1805,08/30.0/2024,2000,g 15.7,4.0
# From MPEC 2024-Q20
158P/Kowal-LINEAR,e,7.3419,125.7341,220.6817,5.603684,0.0743008,0.11782152,59.3100,08/30.0/2024,2000,g  9.0,4.0
# From MPEC 2024-DC6
159P/LONEOS,e,23.4890,54.9390,4.6777,5.853882,0.0695886,0.38277665,159.2463,08/30.0/2024,2000,g 10.0,4.0
# From MPEC 2022-K19
160P/LINEAR,e,15.6001,333.3653,12.7902,3.778657,0.1341831,0.52532844,232.5269,08/30.0/2024,2000,g 15.5,2.0
# From MPC 75721
161P/Hartley-IRAS,e,95.8195,1.5439,47.0686,7.713088,0.0460110,0.83571118,322.2672,08/30.0/2024,2000,g  8.5,6.0
# From MPEC 2024-LE0
162P/SidingSpring,e,27.5599,30.8855,357.2241,3.092086,0.1812704,0.58306558,246.5768,08/30.0/2024,2000,g 12.0,4.0
# From MPEC 2021-S45
163P/NEAT,e,12.7204,102.0711,349.5927,3.762384,0.1350546,0.45334759,249.8107,08/30.0/2024,2000,g 14.5,4.0
# From MPEC 2024-P23
164P/Christensen,e,16.2772,88.2692,325.9390,3.651785,0.1412363,0.54123528,321.8114,08/30.0/2024,2000,g 11.0,4.0
# From MPC 75721
165P/LINEAR,e,15.9023,0.7545,125.7958,17.81616,0.0131064,0.61856386,116.0224,08/30.0/2024,2000,g 11.5,2.0
# From MPC 75722
166P/NEAT,e,15.3800,64.4292,321.7835,13.83053,0.0191622,0.38384038,155.5327,08/30.0/2024,2000,g  5.5,4.0
# From MPEC 2023-J29
167P/CINEOS,e,19.0821,295.8140,344.6349,16.25785,0.0150352,0.26808122,128.4612,08/30.0/2024,2000,g  9.5,2.0
# From MPEC 2023-J29
168P/Hergenrother,e,21.5999,355.4080,15.0881,3.586815,0.1450910,0.62144121,267.9928,08/30.0/2024,2000,g 15.5,4.0
# From MPEC 2023-J95
169P/NEAT,e,11.2915,176.0823,218.0962,2.603468,0.2346258,0.76821966,183.5264,08/30.0/2024,2000,g 16.0,2.0
# From MPEC 2024-L77
170P/Christensen,e,10.1193,142.6684,224.9922,4.201163,0.1144590,0.30534972,57.3599,08/30.0/2024,2000,g 12.0,4.0
# From MPC102102
171P/Spahr,e,21.9505,101.7003,347.0761,3.552220,0.1472157,0.50265542,302.4308,08/30.0/2024,2000,g 13.5,4.0
# From MPEC 2024-L77
